{
  "norad_id": 59780,
  "name": "2024-092H",
  "history": [
    {
      "epoch": "2026-03-28T22:22:14.331648Z",
      "apogee_km": 795.2749316179834,
      "perigee_km": 776.0872180100396,
      "latitude_deg": 4.331140346718003e-05,
      "longitude_deg": 45.19471244668595,
      "height_km": 788.0945312401182,
      "semi_major_axis_km": 7163.818074814011,
      "eccentricity": 0.00133921,
      "inclination_deg": 98.658,
      "raan_deg": 207.0999,
      "arg_perigee_deg": 87.0956,
      "mean_anomaly_deg": 273.176,
      "mean_motion_rev_day": 14.31811807
    },
    {
      "epoch": "2026-03-29T05:04:45.354720Z",
      "apogee_km": 795.2699103862706,
      "perigee_km": 776.0909383777162,
      "latitude_deg": 3.606608521808064e-05,
      "longitude_deg": -55.43116230646495,
      "height_km": 787.9658593204864,
      "semi_major_axis_km": 7163.817424381993,
      "eccentricity": 0.0013386,
      "inclination_deg": 98.658,
      "raan_deg": 207.3788,
      "arg_perigee_deg": 86.3279,
      "mean_anomaly_deg": 273.9435,
      "mean_motion_rev_day": 14.31812002
    },
    {
      "epoch": "2026-03-30T04:33:33.901344Z",
      "apogee_km": 795.2607575434431,
      "perigee_km": 776.094687634627,
      "latitude_deg": -3.121675656259206e-05,
      "longitude_deg": -47.62172466682218,
      "height_km": 787.5251539539005,
      "semi_major_axis_km": 7163.814722589034,
      "eccentricity": 0.0013377,
      "inclination_deg": 98.6581,
      "raan_deg": 208.3548,
      "arg_perigee_deg": 83.6956,
      "mean_anomaly_deg": 276.575,
      "mean_motion_rev_day": 14.31812812
    },
    {
      "epoch": "2026-03-30T06:14:11.652576Z",
      "apogee_km": 795.2592461183503,
      "perigee_km": 776.0958988606499,
      "latitude_deg": -5.162129434731651e-05,
      "longitude_deg": -72.77819652659248,
      "height_km": 787.4936138129527,
      "semi_major_axis_km": 7163.8145724895,
      "eccentricity": 0.00133751,
      "inclination_deg": 98.6582,
      "raan_deg": 208.4245,
      "arg_perigee_deg": 83.5057,
      "mean_anomaly_deg": 276.7648,
      "mean_motion_rev_day": 14.31812857
    }
  ]
}